STARLINK-2364           
1 47904U 21021AW  26068.71332183 -.00002618  00000+0 -76354-4 0  9997
2 47904  53.1596 255.1801 0000920  95.2862 264.8244 15.30178556276411
BLUEBON                 
1 62688U 25009CH  26068.70316231  .00010452  00000+0  37313-3 0  9992
2 62688  97.4017 152.2033 0001193  43.3900 316.7434 15.29047253 63767
